[{"OBJECT_NAME":"STARLINK-34942","OBJECT_ID":"2025-175H","EPOCH":"2026-03-09T15:55:10.206912","MEAN_MOTION":15.05658299,"ECCENTRICITY":0.00026692,"INCLINATION":97.6035,"RA_OF_ASC_NODE":302.5892,"ARG_OF_PERICENTER":80.0541,"MEAN_ANOMALY":280.0987,"EPHEMERIS_TYPE":0,"CLASSIFICATION_TYPE":"U","NORAD_CAT_ID":65181,"ELEMENT_SET_NO":999,"REV_AT_EPOCH":3260,"BSTAR":6.5515386e-5,"MEAN_MOTION_DOT":8.85e-6,"MEAN_MOTION_DDOT":0},{"OBJECT_NAME":"UNKNOWN","OBJECT_ID":"","EPOCH":"2026-03-09T02:53:57.432768","MEAN_MOTION":15.04852502,"ECCENTRICITY":0.0007482,"INCLINATION":86.6587,"RA_OF_ASC_NODE":118.2618,"ARG_OF_PERICENTER":183.1315,"MEAN_ANOMALY":176.9875,"EPHEMERIS_TYPE":0,"CLASSIFICATION_TYPE":"U","NORAD_CAT_ID":82402,"ELEMENT_SET_NO":999,"REV_AT_EPOCH":46745,"BSTAR":0.00051144,"MEAN_MOTION_DOT":7.26e-5,"MEAN_MOTION_DDOT":0}]
